STARLINK-1434           
1 45712U 20035BH  26068.24137979  .00054112  00000+0  20295-2 0  9995
2 45712  53.0547  22.1128 0005343  88.0400 272.1210 15.26724568319325
STARLINK-35871          
1 66566U 25268K   26068.10857994  .00042095  00000+0  15307-2 0  9994
2 66566  43.0044 350.1058 0001740 286.9653  73.1008 15.27576379 17873
